#dP2024  5  4  6  0  0.00000000      96 __u+U IGS20 EXT  IAC
## 2312 540000.00000000   900.00000000 60434 0.2500000000000
+  119   C06C07C08C09C10C11C12C13C14C16C19C20C21C22C23C24C25
+        C26C27C28C29C30C32C33C34C35C36C37C38C39C40C41C42C43
+        C44C45C46E02E03E04E05E07E08E09E10E11E12E13E14E15E18
+        E19E21E24E25E26E27E30E31E33E34E36G02G03G04G05G06G07
+        G08G09G10G11G12G13G14G15G16G17G18G19G20G21G22G23G24
+        G25G26G27G28G29G30G31G32J02J03J04R01R02R03R04R05R07
+        R08R09R11R12R13R14R15R16R17R18R19R20R21R22R24R25R26
++        10  8  9 10  8  9  8  8  8 10  7  7  9 10  8  8  8
++         9  9  8  8  8  8  8  8  9  9  9  8 11 10  7  8  8
++         7  8  9  8  8  7  7  7  8  7  7  7  7  7  7  7  7
++         8  8  7  7  7  7  7  8  7  8  7  7  6  7  8  8  6
++         7  7  8  7  7  8  9  8  7  7  8  6  7  6  8  9  8
++         7  8  7  6  8  8  7  7 11  8  9  7  7  8  8  7  7
++         8  9  9  9  7  7  9  8  8  7  7  8  7  7  6  7  9
%c M  cc GPS ccc cccc cccc cccc cccc ccccc ccccc ccccc ccccc
%c cc cc ccc ccc cccc cccc cccc cccc ccccc ccccc ccccc ccccc
%f  0.0000000  0.000000000  0.00000000000  0.000000000000000
%f  0.0000000  0.000000000  0.00000000000  0.000000000000000
%i    0    0    0    0      0      0      0      0         0
%i    0    0    0    0      0      0      0      0         0
/* IAC                                ULTRA-RAPID PREDICTION
/* S/V CLOCKS ARE ALIGNED TO GNSS TIME                      
/* G:C1WC2W R:C1PC2P E:C1XC5X C:C2IC6I J:C1CC2S             
/* PCV:IGS20_2290 OL/AL:FES2004  NONE     YN ORB:CoN CLK:CoN
*  2024 05 04 20 15  0.00000000
PC06  -9719.748322  23671.209921  33551.344273    396.394057
PC07 -14509.793261  39551.674783  -3613.306790   -759.896566
PC08    609.297941  31821.371895 -27559.435175    -84.195396
PC09  -1914.247481  24610.185438  34665.901356   -854.742273
PC10  -8027.719370  40260.309880 -10521.635265      8.102488
PC11   3930.402132  14929.268229 -23184.992588    545.730567
PC12 -16684.226387  15957.385952 -15644.579122   -241.317671
PC13   6177.805165  35365.561483 -21730.504073    434.218348
PC14   2083.477398  25725.696224  10712.032212    802.722199
PC16 -14995.636880  22143.041009  32819.893248   -500.185151
PC19  -8222.401618 -19706.760059 -17920.284357   -913.093671
PC20   3373.945874 -27460.662855  -3457.497629   -429.278179
PC21 -14066.777343  19252.403478 -14511.086850   -965.420564
PC22 -15828.912072   -130.444226 -22984.308903    -16.073226
PC23  23434.394796   9429.481596 -11854.334069   -777.561447
PC24   1710.247417  20131.251426  19230.053844    929.202740
PC25  18390.642139  20366.364502   5012.043111    391.486190
PC26 -14975.843755   8132.108735  22086.661309   -286.610703
PC27  23174.936109 -13320.308448   8010.703659    308.260516
PC28  26685.097563  -2936.056787  -7618.568877    236.101516
PC29 -13980.141503 -11013.951775  21484.345532    277.016069
PC30   7265.139142 -17807.197558  20215.764284    -69.719694
PC32  13969.996956 -19223.839339  14628.084561   -615.819353
PC33   8321.484040  19776.999457  17863.627789   -967.153634
PC34  -5429.173489  17693.810639 -20896.101129    426.562528
PC35 -26497.059524   3707.780052   7847.205507    371.142532
PC36 -17868.333007 -20819.279696  -5103.537992     71.668372
PC37  15290.885112  -7639.805383 -22044.134615   -969.904590
PC38  -5710.311762  28198.119368 -30739.062585    153.086977
PC39 -19606.003963  21609.589714  30439.111153     -8.226330
PC40 -21397.094484  36460.078514  -2056.540929    -68.583442
PC41  15724.999442   1154.851195  23079.664949   -939.917604
PC42  -4372.870469  27522.835891   1867.973041   -442.665686
PC43  13106.048347  11677.378161 -21712.657951     70.449166
PC44 -22673.394710  14215.044785  -7876.208225    463.487092
PC45 -23377.660415  -9634.361401  11828.938832    -83.787158
PC46  -2489.229225 -20388.927021 -18910.562550   -145.462179
PE02 -17433.584650  -2025.135815  23830.016671    124.766542
PE03 -23733.422809   7578.286261 -15991.882150   -111.587530
PE04  20132.686336 -21605.589397  -1951.868581   -389.206182
PE05 -13334.118580 -10617.858138 -24189.798679   4744.668597
PE07  -5279.168176  22851.009214  18079.409775   -118.263166
PE08 -20561.793261  21272.493071   1184.066390   -265.478482
PE09   5439.784622 -22787.687527 -18072.407266   -430.997437
PE10   6483.110731 -14735.587683  24829.607373   -622.249547
PE11  -5574.075550 -17273.487420  23363.092837   2927.554122
PE12  16377.354307 -10374.411455  22367.626307  -1023.709843
PE13   4944.100121  17147.730667 -23619.526683    -21.387281
PE14  -6973.710151 -14821.364971  18390.061923     26.134018
PE15 -16842.578102  10030.129039 -22173.896887   -100.948513
PE18   1089.191172  23334.833631 -21270.585056     73.615684
PE19  23198.527969  -5625.229281  17515.166515   -123.180101
PE21  15183.457542  21339.758067 -13799.076779   -592.748848
PE24  -3601.607277 -28961.663837  -5014.970523   -744.147804
PE25 -15025.941325 -21659.695932  13464.902779      4.115173
PE26  23825.258096  13957.097100 -10672.422029    444.879807
PE27   3922.252665  28954.995271   4714.605733   -341.057700
PE30  -9688.341337  19272.167914  20254.045026   -266.442176
PE31   9509.478689 -19412.395451 -20218.196637    -22.604609
PE33  28516.449658   3217.658679   7256.276446     11.271091
PE34 -28430.392815  -2802.834230  -7759.883629   -109.389629
PE36 -23443.734543 -14125.866995  11249.729285   -222.532951
PG02  16501.373043  13487.507767 -15548.802527   -441.992419
PG03  12428.675315  21689.815283   9006.430598    346.229292
PG04   9176.386282  12145.229058  21777.729432    353.753602
PG05  -5058.634795 -25490.138054   5068.550106   -171.522851
PG06  18844.128030  -6940.794741  17502.133154    289.769553
PG07  26122.235344   5940.800960   -715.447663   -121.778665
PG08    762.756543  18897.443350 -18581.110394    160.233409
PG09  18447.898381   -325.537771  19045.492178    184.278350
PG10 -12527.717427   8416.016710 -21610.518892    -17.842096
PG11   6036.137010 -13924.403029  21817.728715   -653.910452
PG12 -10302.036334 -23273.998495   7402.578756   -502.464284
PG13   9293.297284 -20074.193945 -14731.981750    647.966394
PG14  14924.727256  -4242.392328 -21524.092180    392.667338
PG15  -3339.141584 -19085.872454 -18579.855371    155.489733
PG16   -747.010401  24967.525615   8000.805024   -300.132274
PG17  21952.256285 -11569.367020  -9268.041375    708.689163
PG18 -26031.281516  -5253.759358  -2406.485238   -605.463077
PG19  20603.794015 -16400.381721  -1064.024806    477.450972
PG20   1377.632178 -21774.515205  15312.296525    377.775194
PG21  11919.313707  14851.821551 -18469.857664    123.535604
PG22  11381.851099 -13286.857669 -19649.328801     -8.997618
PG23 -16102.385115  -5001.409075 -20548.848570    217.262459
PG24 -14255.725166 -15012.424336 -17277.318136   -466.443558
PG25 -15639.830779 -15753.818332  14431.884047    495.110514
PG26  -7882.371214  17368.801597  18183.790679    157.606139
PG27 -10107.736599  21844.441596 -11024.812151    -22.333918
PG28 -20653.022037   6559.208436  15343.449947   -230.179922
PG29 -16852.472625  -3457.940124  20211.798535   -599.637177
PG30  24018.724278  -2539.868971 -11204.153845   -395.414713
PG31 -11686.364621  11911.120888  20535.586747   -227.914583
PG32 -20785.018868  14443.504405  -7490.926600   -618.418419
PJ02 -27002.984614  26278.739889  24184.421938     -0.097001
PJ03 -32037.386723  16566.200816 -17166.625765      0.107136
PJ04 -21833.146888  33116.342059  -9392.394130     50.362314
PR01 -12580.690768   4013.754877 -21820.975540     84.390068
PR02 -13277.322485  19016.906291 -10497.651272    -22.873901
PR03  -6171.350981  23750.544600   6915.232874     99.518677
PR04   3687.629045  15295.881821  20108.796948    234.947082
PR05  11861.451706  -1249.415250  22566.930584    131.010311
PR07   5834.687389 -23659.020170  -7572.877054     81.677139
PR08  -3979.784973 -15147.154343 -20078.312481    -75.299992
PR09   8623.677986  -7325.698205 -22841.270464    184.728608
PR11 -15108.110977 -20445.696503  -1961.023413     25.848011
PR12 -17297.328227  -9390.346961  16257.793558     39.752816
PR13 -10200.341031   4838.358115  22860.813241    -47.056546
PR14   4969.184712  18942.315445  16370.762565     26.450139
PR15  15602.678929  20182.564007    398.076614     80.109597
PR16  17320.383021   9624.205697 -16076.462032     25.316403
PR17  -4472.750095  11004.255381 -22576.047803     83.861375
PR18  13246.906398   7709.836926 -20397.195805    140.442350
PR19  23616.753930   2135.439107  -9405.790526   -275.434837
PR20  21633.401368  -7048.538550  11579.564746   -112.294580
PR21   4622.469584 -10882.873938  22592.917588    -98.148112
PR22 -14080.400926  -8063.093633  19699.149851    113.835824
PR24 -20917.273607   8397.874726 -11943.003150    -54.496233
PR25   4553.332212 -11115.285915  22502.081876    -33.575601
PR26  -3409.775720 -16038.868252 -19504.226117    -21.426990
EOF
